FENGYUN 1C DEB          
1 32228U 99025CWA 17342.39537622  .00001439  00000-0  40089-3 0  9997
2 32228  98.6545  36.7196 0093664  57.0491 303.9664 14.45370436548456
